[
    {
        "Altitude(m)": 703331.5594431206,
        "Argument of Periapsis(deg)": 0.0011390121186627068,
        "Eccentricity": 0.0,
        "Inclination(deg)": 45.0,
        "Latitude(deg)": 23.29000944695193,
        "Longitude(deg)": 10.300269180756425,
        "Mean Anomaly(deg)": 33.880621664748105,
        "RAAN(deg)": 84.99892480585419,
        "Satellite Name": "Constellation 1 376",
        "Satellite Number": 376,
        "Semi-Major Axis(m)": 7083131.272910544,
        "Time(s)": 19
    },
    {
        "Altitude(m)": 703335.904922058,
        "Argument of Periapsis(deg)": 0.0011989601249081123,
        "Eccentricity": 0.0,
        "Inclination(deg)": 45.0,
        "Latitude(deg)": 23.32901204552528,
        "Longitude(deg)": 10.346940561912001,
        "Mean Anomaly(deg)": 33.94132280499798,
        "RAAN(deg)": 84.99886821668862,
        "Satellite Name": "Constellation 1 376",
        "Satellite Number": 376,
        "Semi-Major Axis(m)": 7083131.272910544,
        "Time(s)": 20
    },
    {
        "Altitude(m)": 703340.2615057925,
        "Argument of Periapsis(deg)": 0.001258908131153518,
        "Eccentricity": 0.0,
        "Inclination(deg)": 45.0,
        "Latitude(deg)": 23.36799799775335,
        "Longitude(deg)": 10.393641587201797,
        "Mean Anomaly(deg)": 34.002023945247885,
        "RAAN(deg)": 84.99881162752304,
        "Satellite Name": "Constellation 1 376",
        "Satellite Number": 376,
        "Semi-Major Axis(m)": 7083131.272910544,
        "Time(s)": 21
    },
    {
        "Altitude(m)": 703344.6291588863,
        "Argument of Periapsis(deg)": 0.0013188561373989236,
        "Eccentricity": 0.0,
        "Inclination(deg)": 45.0,
        "Latitude(deg)": 23.406967263143095,
        "Longitude(deg)": 10.440372148660305,
        "Mean Anomaly(deg)": 34.06272508549778,
        "RAAN(deg)": 84.99875503835747,
        "Satellite Name": "Constellation 1 376",
        "Satellite Number": 376,
        "Semi-Major Axis(m)": 7083131.272910544,
        "Time(s)": 22
    },
    {
        "Altitude(m)": 703349.0078458484,
        "Argument of Periapsis(deg)": 0.0013788041436443293,
        "Eccentricity": 0.0,
        "Inclination(deg)": 45.0,
        "Latitude(deg)": 23.44591980114397,
        "Longitude(deg)": 10.487132642629318,
        "Mean Anomaly(deg)": 34.12342622574769,
        "RAAN(deg)": 84.9986984491919,
        "Satellite Name": "Constellation 1 376",
        "Satellite Number": 376,
        "Semi-Major Axis(m)": 7083131.272910544,
        "Time(s)": 23
    },
    {
        "Altitude(m)": 703353.3975311611,
        "Argument of Periapsis(deg)": 0.001438752149889735,
        "Eccentricity": 0.0,
        "Inclination(deg)": 45.0,
        "Latitude(deg)": 23.484855571145978,
        "Longitude(deg)": 10.533922961175529,
        "Mean Anomaly(deg)": 34.18412736599756,
        "RAAN(deg)": 84.99864186002634,
        "Satellite Name": "Constellation 1 376",
        "Satellite Number": 376,
        "Semi-Major Axis(m)": 7083131.272910544,
        "Time(s)": 24
    },
    {
        "Altitude(m)": 703357.7981792623,
        "Argument of Periapsis(deg)": 0.0014987001561351404,
        "Eccentricity": 0.0,
        "Inclination(deg)": 45.0,
        "Latitude(deg)": 23.52377453248086,
        "Longitude(deg)": 10.580743164478537,
        "Mean Anomaly(deg)": 34.244828506247465,
        "RAAN(deg)": 84.99858527086076,
        "Satellite Name": "Constellation 1 376",
        "Satellite Number": 376,
        "Semi-Major Axis(m)": 7083131.272910544,
        "Time(s)": 25
    },
    {
        "Altitude(m)": 703362.209754563,
        "Argument of Periapsis(deg)": 0.001558648162380546,
        "Eccentricity": 0.0,
        "Inclination(deg)": 45.0,
        "Latitude(deg)": 23.562676644421604,
        "Longitude(deg)": 10.627593312733541,
        "Mean Anomaly(deg)": 34.30552964649736,
        "RAAN(deg)": 84.99852868169519,
        "Satellite Name": "Constellation 1 376",
        "Satellite Number": 376,
        "Semi-Major Axis(m)": 7083131.272910544,
        "Time(s)": 26
    },
    {
        "Altitude(m)": 703366.6322214233,
        "Argument of Periapsis(deg)": 0.0016185961686259519,
        "Eccentricity": 0.0,
        "Inclination(deg)": 45.0,
        "Latitude(deg)": 23.601561866182355,
        "Longitude(deg)": 10.674473466151046,
        "Mean Anomaly(deg)": 34.36623078674727,
        "RAAN(deg)": 84.99847209252964,
        "Satellite Name": "Constellation 1 376",
        "Satellite Number": 376,
        "Semi-Major Axis(m)": 7083131.272910544,
        "Time(s)": 27
    },
    {
        "Altitude(m)": 703371.0655441714,
        "Argument of Periapsis(deg)": 0.0016785441748713573,
        "Eccentricity": 0.0,
        "Inclination(deg)": 45.0,
        "Latitude(deg)": 23.64043015691833,
        "Longitude(deg)": 10.721383684956738,
        "Mean Anomaly(deg)": 34.42693192699718,
        "RAAN(deg)": 84.99841550336406,
        "Satellite Name": "Constellation 1 376",
        "Satellite Number": 376,
        "Semi-Major Axis(m)": 7083131.272910544,
        "Time(s)": 28
    },
    {
        "Altitude(m)": 703375.509687098,
        "Argument of Periapsis(deg)": 0.001738492181116763,
        "Eccentricity": 0.0,
        "Inclination(deg)": 45.0,
        "Latitude(deg)": 23.67928147572567,
        "Longitude(deg)": 10.76832402939124,
        "Mean Anomaly(deg)": 34.487633067247074,
        "RAAN(deg)": 84.99835891419849,
        "Satellite Name": "Constellation 1 376",
        "Satellite Number": 376,
        "Semi-Major Axis(m)": 7083131.272910544,
        "Time(s)": 29
    },
    {
        "Altitude(m)": 703379.9646144595,
        "Argument of Periapsis(deg)": 0.0017984401873621684,
        "Eccentricity": 0.0,
        "Inclination(deg)": 45.0,
        "Latitude(deg)": 23.718115781641078,
        "Longitude(deg)": 10.815294391612841,
        "Mean Anomaly(deg)": 34.54833420749697,
        "RAAN(deg)": 84.99830232503291,
        "Satellite Name": "Constellation 1 376",
        "Satellite Number": 376,
        "Semi-Major Axis(m)": 7083131.272910544,
        "Time(s)": 30
    },
    {
        "Altitude(m)": 703384.4302904697,
        "Argument of Periapsis(deg)": 0.0018583881936075745,
        "Eccentricity": 0.0,
        "Inclination(deg)": 45.0,
        "Latitude(deg)": 23.75693303364288,
        "Longitude(deg)": 10.862295168085582,
        "Mean Anomaly(deg)": 34.60903534774686,
        "RAAN(deg)": 84.99824573586736,
        "Satellite Name": "Constellation 1 376",
        "Satellite Number": 376,
        "Semi-Major Axis(m)": 7083131.272910544,
        "Time(s)": 31
    },
    {
        "Altitude(m)": 703388.9066793121,
        "Argument of Periapsis(deg)": 0.0019183361998529795,
        "Eccentricity": 0.0,
        "Inclination(deg)": 45.0,
        "Latitude(deg)": 23.79573319064911,
        "Longitude(deg)": 10.909326250996498,
        "Mean Anomaly(deg)": 34.669736487996786,
        "RAAN(deg)": 84.99818914670179,
        "Satellite Name": "Constellation 1 376",
        "Satellite Number": 376,
        "Semi-Major Axis(m)": 7083131.272910544,
        "Time(s)": 32
    },
    {
        "Altitude(m)": 703393.3937451261,
        "Argument of Periapsis(deg)": 0.0019782842060983856,
        "Eccentricity": 0.0,
        "Inclination(deg)": 45.0,
        "Latitude(deg)": 23.834516211518597,
        "Longitude(deg)": 10.956387700643766,
        "Mean Anomaly(deg)": 34.730437628246655,
        "RAAN(deg)": 84.99813255753621,
        "Satellite Name": "Constellation 1 376",
        "Satellite Number": 376,
        "Semi-Major Axis(m)": 7083131.272910544,
        "Time(s)": 33
    },
    {
        "Altitude(m)": 703397.8914520203,
        "Argument of Periapsis(deg)": 0.0020382322123437906,
        "Eccentricity": 0.0,
        "Inclination(deg)": 45.0,
        "Latitude(deg)": 23.87328205505058,
        "Longitude(deg)": 11.003479577339428,
        "Mean Anomaly(deg)": 34.79113876849656,
        "RAAN(deg)": 84.99807596837064,
        "Satellite Name": "Constellation 1 376",
        "Satellite Number": 376,
        "Semi-Major Axis(m)": 7083131.272910544,
        "Time(s)": 34
    },
    {
        "Altitude(m)": 703402.3997640696,
        "Argument of Periapsis(deg)": 0.002098180218589197,
        "Eccentricity": 0.0,
        "Inclination(deg)": 45.0,
        "Latitude(deg)": 23.9120306799846,
        "Longitude(deg)": 11.050601941408987,
        "Mean Anomaly(deg)": 34.85183990874645,
        "RAAN(deg)": 84.99801937920508,
        "Satellite Name": "Constellation 1 376",
        "Satellite Number": 376,
        "Semi-Major Axis(m)": 7083131.272910544,
        "Time(s)": 35
    },
    {
        "Altitude(m)": 703406.9186453053,
        "Argument of Periapsis(deg)": 0.002158128224834602,
        "Eccentricity": 0.0,
        "Inclination(deg)": 45.0,
        "Latitude(deg)": 23.950762045000413,
        "Longitude(deg)": 11.097754853191452,
        "Mean Anomaly(deg)": 34.91254104899637,
        "RAAN(deg)": 84.99796279003951,
        "Satellite Name": "Constellation 1 376",
        "Satellite Number": 376,
        "Semi-Major Axis(m)": 7083131.272910544,
        "Time(s)": 36
    },
    {
        "Altitude(m)": 703411.448059726,
        "Argument of Periapsis(deg)": 0.002218076231080008,
        "Eccentricity": 0.0,
        "Inclination(deg)": 45.0,
        "Latitude(deg)": 23.98947610871747,
        "Longitude(deg)": 11.144938204941855,
        "Mean Anomaly(deg)": 34.973242189246264,
        "RAAN(deg)": 84.99790620087393,
        "Satellite Name": "Constellation 1 376",
        "Satellite Number": 376,
        "Semi-Major Axis(m)": 7083131.272910544,
        "Time(s)": 37
    }
]